{
  "norad_id": 53803,
  "name": "STARLINK-4727",
  "history": [
    {
      "epoch": "2026-03-28T11:39:04.400640Z",
      "apogee_km": 540.5456496146735,
      "perigee_km": 538.9048710437683,
      "latitude_deg": -9.525159854505933e-07,
      "longitude_deg": 164.11652882585255,
      "height_km": 540.6283011663978,
      "semi_major_axis_km": 6917.862260329221,
      "eccentricity": 0.00011859,
      "inclination_deg": 53.2164,
      "raan_deg": 164.7901,
      "arg_perigee_deg": 90.5028,
      "mean_anomaly_deg": 269.61,
      "mean_motion_rev_day": 15.08845931
    }
  ]
}